[{"OBJECT_NAME":"STARLINK-4300","OBJECT_ID":"2022-083AT","EPOCH":"2026-03-09T11:11:27.442176","MEAN_MOTION":15.08844016,"ECCENTRICITY":0.00012528,"INCLINATION":53.2153,"RA_OF_ASC_NODE":140.1125,"ARG_OF_PERICENTER":83.9868,"MEAN_ANOMALY":276.1267,"EPHEMERIS_TYPE":0,"CLASSIFICATION_TYPE":"U","NORAD_CAT_ID":53173,"ELEMENT_SET_NO":999,"REV_AT_EPOCH":20166,"BSTAR":7.551612e-6,"MEAN_MOTION_DOT":-1.68e-6,"MEAN_MOTION_DDOT":0},{"OBJECT_NAME":"CZ-6A DEB","OBJECT_ID":"2024-140NC","EPOCH":"2026-03-09T01:19:44.598720","MEAN_MOTION":14.85954551,"ECCENTRICITY":0.01874643,"INCLINATION":89.0262,"RA_OF_ASC_NODE":281.6645,"ARG_OF_PERICENTER":160.2054,"MEAN_ANOMALY":200.6578,"EPHEMERIS_TYPE":0,"CLASSIFICATION_TYPE":"U","NORAD_CAT_ID":61086,"ELEMENT_SET_NO":999,"REV_AT_EPOCH":8276,"BSTAR":0.00091551765,"MEAN_MOTION_DOT":0.00011041,"MEAN_MOTION_DDOT":0}]
